#cP2024  2 21  6  0  0.00000000     577 d+D   IGS20 EXT AIUB
## 2302 280800.00000000   300.00000000 60361 0.2500000000000
+   76   G02G03G04G05G07G08G09G10G11G12G13G14G15G16G17G18G19
+        G20G21G22G23G24G25G26G27G28G29G30G31G32R01R02R03R04
+        R05R07R08R09R11R12R13R14R15R16R17R18R19R20R21R22R24
+        E02E03E04E05E07E08E09E10E11E12E13E14E15E18E19E21E24
+        E25E26E27E30E31E33E34E36  0  0  0  0  0  0  0  0  0
++         7  6  8  7  7  7  6  6  7  7  8  6  7  7  7  7  7
++         7  8  7  6  6  6  7  6  6  7  7  7  6  9  7  8  8
++         8  8  7  6  6  7  8  7  6  7  9  8  9  9  8  7  8
++         8  7  7  7  8  7  7  6  6  7  7  7  7  7  6  6  6
++         6  6  6  6  6  7  7  6  0  0  0  0  0  0  0  0  0
%c M  cc GPS ccc cccc cccc cccc cccc ccccc ccccc ccccc ccccc
%c cc cc ccc ccc cccc cccc cccc cccc ccccc ccccc ccccc ccccc
%f  1.2500000  1.025000000  0.00000000000  0.000000000000000
%f  0.0000000  0.000000000  0.00000000000  0.000000000000000
%i    0    0    0    0      0      0      0      0         0
%i    0    0    0    0      0      0      0      0         0
/* Center for Orbit Determination in Europe (CODE)          
/* Ultra-rapid GRE orbits starting year-day 24052 06 hour   
/* Observed/predicted: 25/23 hours (data used up to 053G)   
/* PCV:IGS20      OL/AL:FES2014b NONE     YN ORB:CoN CLK:BRD
*  2024  2 22 19  5  0.00000000
PG02  14276.641675 -15765.751191  16237.275516   -481.340360               P   P
PG03  21606.375707 -12173.928701  -9486.606002    209.716694               P   P
PG04  12174.821929  -9070.766250 -21781.605686    298.159560               P   P
PG05 -25796.396995   5621.764783  -3487.301844   -162.789549               P   P
PG07   4546.297174 -25745.152059   3356.747247    -68.180987               P   P
PG08  18397.516518  -1274.600002  19165.998200     -0.159657               P   P
PG09   -520.712880 -18821.892304 -18791.801145    100.988777               P   P
PG10   9723.830926  12378.330001  21650.657963      1.145752               P   P
PG11 -14073.291317  -5475.158644 -21825.466905   -584.565351               P   P
PG12 -22609.340846  10739.877991  -9070.934821   -480.543691               P   P
PG13 -19756.485718  -9205.594727  15129.409558    627.925729               P   P
PG14  -5342.755909 -14680.243530  21511.787999    332.620687               P   P
PG15 -18279.731195   3452.501549  18540.987025    130.431234               P   P
PG16  25453.464570   1656.119832  -8537.883557   -356.861926               P   P
PG17 -10787.296237 -22346.775883   9676.015953    716.135765               P   P
PG18  -4635.606679  25733.981245   4066.602338   -561.264048               P   P
PG19 -16863.341627 -20778.536003   -241.617407    444.331598               P   P
PG20 -21636.066463  -1866.928761 -15121.170384    386.511611               P   P
PG21  15441.212648  -9854.537217  19339.099441    133.974527               P   P
PG22 -12951.235115 -12068.573109  20139.408400     26.955723               P   P
PG23  -4258.933689  15895.427380  20828.033918    161.820262               P   P
PG24 -14728.943294  14108.912225  16382.359410   -435.941520               P   P
PG25 -13297.878507  16070.858852 -16622.971250    489.369227               P   P
PG26  19279.489936   6883.673743 -17257.208484    187.394822               P   P
PG27  21713.343826  10759.397104  11082.977601     -6.286309               P   P
PG28   7196.661879  19551.938764 -16495.353709   -139.985345               P   P
PG29  -2519.894796  17697.223067 -19660.971014   -606.429210               P   P
PG30  -3252.438573 -23100.466172  12574.189325   -429.123820               P   P
PG31  12556.258426  10336.643762 -21139.783996   -227.848878               P   P
PG32  14792.453390  21215.117590   6707.733635   -612.961063               P   P
PR01   8834.034636  13572.812109  19709.779840     77.828821               P   P
PR02  21626.235539  12381.899583   5656.086220    -22.521242               P   P
PR03  22427.746741   3668.817298 -11593.451706     94.997132               P   P
PR04  10821.431010  -6456.635388 -22146.448982    224.561407               P   P
PR05  -6456.040494 -13347.857436 -20732.709619    127.309612               P   P
PR07 -22013.875244  -3049.546872  12519.971415     76.415441               P   P
PR08 -10541.020527   6844.245930  22255.878427    -74.458444               P   P
PR09 -11670.452890  -4769.779005  22199.660498    171.480492               P   P
PR11 -18995.598401  16689.295282  -3418.945647     33.483016               P   P
PR12  -5039.828364  15598.115378 -19520.169587     37.012979               P   P
PR13   9414.345532   6574.829318 -22797.774738    -44.607924               P   P
PR14  20710.728276  -8468.362007 -12227.136960     26.082620               P   P
PR15  18415.515325 -16946.317986   4937.654662     81.974072               P   P
PR16   5270.988989 -15629.376595  19447.554816     23.498022               P   P
PR17  10530.967474  -1162.270711  23213.398485     63.392528               P   P
PR18   6080.122828 -17613.192534  17408.051157    128.688969               P   P
PR19     78.610171 -25149.116489   4256.456601   -266.803174               P   P
PR20  -8354.972574 -18108.201216 -15864.288616   -108.697414               P   P
PR21 -10430.732892   1277.389217 -23240.470934    -79.058830               P   P
PR22  -6414.610000  18395.800778 -16448.522014    109.384669               P   P
PR24   9588.069395  17262.403077  16161.399686    -44.981256               P   P
PE02  26643.167882 -11068.685610   6653.842252    105.550732               P   P
PE03  16545.293738  -6611.247293 -23636.245065    -95.579673               P   P
PE04    680.478194  21370.196277  20479.613428   -333.448915               P   P
PE05  23860.692892  11791.385328 -12948.344414   4722.547677               P   P
PE07 -17023.680275 -23527.786110  -5742.978539   -105.165142               P   P
PE08   -114.838249 -20946.082846 -20915.721335   -228.002117               P   P
PE09  16961.275017  23523.884546   5898.373790   -345.545574               P   P
PE10  -1468.588457  27880.355294   9837.240411   -603.939876               P   P
PE11   5813.936112  22467.963125  18379.765977   3230.023812               P   P
PE12  -7809.775074  28555.281250    778.410973   -917.681797               P   P
PE13  -5348.142509 -22902.239400 -17956.618183    -20.269180               P   P
PE14  -6866.445940  18324.535080 -20465.557952 999999.999999               P   P
PE15   8123.333409 -28455.160739   -207.356959    -87.279036               P   P
PE18  -9907.747876 -25583.936211  10816.849273 999999.999999               P   P
PE19 -17924.034129   4355.535209  23159.805181   -564.447479               P   P
PE21 -27351.219279  -1367.094847  11218.494595   -580.371845               P   P
PE24  11735.667105  13887.886004 -23384.566633   -612.849499               P   P
PE25  27200.611915   1654.116310 -11571.443265      1.234920               P   P
PE26 -15819.832791  -3386.371803 -24778.893546    376.417927               P   P
PE27 -12135.931409 -13626.531836  23297.360305   -281.327000               P   P
PE30  10344.590898 -17692.875048  21345.132647    -24.104110               P   P
PE31 -10029.895853  17701.886094 -21497.991979    -16.603276               P   P
PE33 -16732.218828  16750.075847 -17761.481888      7.989349               P   P
PE34  16596.272646 -17284.431774  17378.450499    -96.102504               P   P
PE36  15462.345221   4084.916303  24914.282154   -189.573566               P   P
EOF
